NORAD_CAT_ID,OBJECT_NAME,OBJECT_TYPE,EPOCH,MEAN_MOTION,ECCENTRICITY,INCLINATION,RA_OF_ASC_NODE,ARG_OF_PERICENTER,MEAN_ANOMALY,BSTAR,MEAN_MOTION_DOT,MEAN_MOTION_DDOT,TLE_LINE0,TLE_LINE1,TLE_LINE2,SEMIMAJOR_AXIS,PERIOD,APOGEE,PERIGEE,DECAYED
53628.0,STARLINK-4600,PAYLOAD,2023-08-14 00:25:41,15.08841424,0.000128,53.2172,127.5459,90.1967,269.9171,5.6995e-05,6.19e-06,0.0,0 STARLINK-4600,1 53628U 22104AS  23226.01783683  .00000619  00000-0  56995-4 0  9998,2 53628  53.2172 127.5459 0001280  90.1967 269.9171 15.08841424 53361,6917.876,95.437,540.627,538.856,0.0
53628.0,STARLINK-4600,PAYLOAD,2023-08-15 03:27:14,15.08842394,0.00013,53.2164,122.4914,91.2953,268.8188,1.1317e-07,-2.86e-06,0.0,0 STARLINK-4600,1 53628U 22104AS  23227.14391900 -.00000286  00000-0  11317-6 0  9992,2 53628  53.2164 122.4914 0001300  91.2953 268.8188 15.08842394 53534,6917.873,95.437,540.637,538.839,0.0
53628.0,STARLINK-4600,PAYLOAD,2023-08-16 17:36:30,15.08836489,0.0001444,53.2157,115.354,88.2331,271.8826,4.4307e-05,4.17e-06,0.0,0 STARLINK-4600,1 53628U 22104AS  23228.73368444  .00000417  00000-0  44307-4 0  9993,2 53628  53.2157 115.3540 0001444  88.2331 271.8826 15.08836489 53774,6917.891,95.438,540.755,538.757,0.0
53628.0,STARLINK-4600,PAYLOAD,2023-08-17 01:33:25,15.0884237,0.0001536,53.2158,113.8667,83.5862,276.5305,8.3687e-05,1.044e-05,0.0,0 STARLINK-4600,1 53628U 22104AS  23229.06488021  .00001044  00000-0  83687-4 0  9995,2 53628  53.2158 113.8667 0001536  83.5862 276.5305 15.08842370 53823,6917.873,95.437,540.801,538.676,0.0
53628.0,STARLINK-4600,PAYLOAD,2023-08-18 22:04:14,15.0883632,0.0001511,53.2178,105.5416,84.1484,275.9681,-2.9101e-05,-7.51e-06,0.0,0 STARLINK-4600,1 53628U 22104AS  23230.91960754 -.00000751  00000-0 -29101-4 0  9996,2 53628  53.2178 105.5416 0001511  84.1484 275.9681 15.08836320 54105,6917.892,95.438,540.802,538.711,0.0
53628.0,STARLINK-4600,PAYLOAD,2023-08-20 01:05:47,15.08836442,0.0001563,53.2157,100.4875,84.0882,276.0288,9.5788e-05,1.237e-05,0.0,0 STARLINK-4600,1 53628U 22104AS  23232.04568586  .00001237  00000-0  95788-4 0  9991,2 53628  53.2157 100.4875 0001563  84.0882 276.0288 15.08836442 54271,6917.891,95.438,540.838,538.675,0.0
53628.0,STARLINK-4600,PAYLOAD,2023-08-21 20:01:12,15.08823173,0.0001388,53.2178,92.4558,100.307,259.8079,0.00014997,2.099e-05,0.0,0 STARLINK-4600,1 53628U 22104AS  23233.83417451  .00002099  00000-0  14997-3 0  9992,2 53628  53.2178  92.4558 0001388 100.3070 259.8079 15.08823173 54542,6917.932,95.439,540.757,538.837,0.0
53628.0,STARLINK-4600,PAYLOAD,2023-08-23 00:38:08,15.08837989,0.0001376,53.2178,87.1033,96.4568,263.6581,-2.6794e-06,-3.31e-06,0.0,0 STARLINK-4600,1 53628U 22104AS  23235.02649210 -.00000331  00000-0 -26794-5 0  9994,2 53628  53.2178  87.1033 0001376  96.4568 263.6581 15.08837989 54726,6917.887,95.438,540.703,538.8,0.0
53628.0,STARLINK-4600,PAYLOAD,2023-08-24 00:28:55,15.08839455,0.0001308,53.2177,82.6429,89.7506,270.3636,0.00010218,1.339e-05,0.0,0 STARLINK-4600,1 53628U 22104AS  23236.02009090  .00001339  00000-0  10218-3 0  9990,2 53628  53.2177  82.6429 0001308  89.7506 270.3636 15.08839455 55565,6917.882,95.438,540.652,538.842,0.0
53628.0,STARLINK-4600,PAYLOAD,2023-08-25 19:24:20,15.0884517,0.0001306,53.2177,74.614,87.0286,273.0856,4.4923e-05,4.27e-06,0.0,0 STARLINK-4600,1 53628U 22104AS  23237.80856907  .00000427  00000-0  44923-4 0  9992,2 53628  53.2177  74.6140 0001306  87.0286 273.0856 15.08845170 55149,6917.865,95.437,540.633,538.826,0.0
53628.0,STARLINK-4600,PAYLOAD,2023-08-25 22:35:06,15.08845897,0.0001315,53.2178,74.0194,87.7748,272.3395,5.0501e-05,5.16e-06,0.0,0 STARLINK-4600,1 53628U 22104AS  23237.94104804  .00000516  00000-0  50501-4 0  9997,2 53628  53.2178  74.0194 0001315  87.7748 272.3395 15.08845897 55857,6917.862,95.437,540.637,538.818,0.0
53628.0,STARLINK-4600,PAYLOAD,2023-08-26 17:39:44,15.08839094,0.0001331,53.2178,70.451,87.4271,272.6874,2.0982e-05,4.6e-07,0.0,0 STARLINK-4600,1 53628U 22104AS  23238.73593241  .00000046  00000-0  20982-4 0  9990,2 53628  53.2178  70.4510 0001331  87.4271 272.6874 15.08839094 55289,6917.883,95.438,540.669,538.827,0.0
53628.0,STARLINK-4600,PAYLOAD,2023-08-26 19:15:07,15.08839396,0.0001532,53.2191,70.1505,94.6631,265.4536,4.795e-05,4.75e-06,0.0,0 STARLINK-4600,1 53628U 22104AS  23238.80217043  .00000475  00000-0  47950-4 0  9991,2 53628  53.2191  70.1505 0001532  94.6631 265.4536 15.08839396 55985,6917.882,95.438,540.807,538.687,0.0
53628.0,STARLINK-4600,PAYLOAD,2023-08-27 19:05:54,15.0884193,0.0001245,53.217,65.6932,94.8634,265.2501,4.4768e-05,4.25e-06,0.0,0 STARLINK-4600,1 53628U 22104AS  23239.79576910  .00000425  00000-0  44768-4 0  9990,2 53628  53.2170  65.6932 0001245  94.8634 265.2501 15.08841930 56136,6917.874,95.437,540.601,538.878,0.0
53628.0,STARLINK-4600,PAYLOAD,2023-08-27 23:52:03,15.08845615,0.0001285,53.2175,64.8006,101.4909,258.6227,7.0142e-05,8.29e-06,0.0,0 STARLINK-4600,1 53628U 22104AS  23239.99448530  .00000829  00000-0  70142-4 0  9991,2 53628  53.2175  64.8006 0001285 101.4909 258.6227 15.08845615 55479,6917.863,95.437,540.617,538.839,0.0
53628.0,STARLINK-4600,PAYLOAD,2023-08-28 18:56:41,15.08838012,0.0001356,53.2177,61.2345,99.028,261.0866,3.6743e-05,2.97e-06,0.0,0 STARLINK-4600,1 53628U 22104AS  23240.78937294  .00000297  00000-0  36743-4 0  9998,2 53628  53.2177  61.2345 0001356  99.0280 261.0866 15.08838012 55594,6917.886,95.438,540.69,538.813,0.0
53628.0,STARLINK-4600,PAYLOAD,2023-08-29 17:12:07,15.0882671,0.0001319,53.218,57.0714,95.6023,264.512,-6.8321e-05,-1.375e-05,0.0,0 STARLINK-4600,1 53628U 22104AS  23241.71674883 -.00001375  00000-0 -68321-4 0  9991,2 53628  53.2180  57.0714 0001319  95.6023 264.5120 15.08826710 55736,6917.921,95.438,540.698,538.874,0.0
53628.0,STARLINK-4600,PAYLOAD,2023-08-29 18:47:30,15.08829194,0.0001346,53.2181,56.774,96.3178,263.7967,-4.6718e-05,-1.031e-05,0.0,0 STARLINK-4600,1 53628U 22104AS  23241.78298702 -.00001031  00000-0 -46718-4 0  9995,2 53628  53.2181  56.7740 0001346  96.3178 263.7967 15.08829194 56438,6917.913,95.438,540.71,538.847,0.0
53628.0,STARLINK-4600,PAYLOAD,2023-08-29 21:58:16,15.08833563,0.0001359,53.2183,56.1793,101.1546,258.9599,2.5698e-06,-2.47e-06,0.0,0 STARLINK-4600,1 53628U 22104AS  23241.91546336 -.00000247  00000-0  25698-5 0  9991,2 53628  53.2183  56.1793 0001359 101.1546 258.9599 15.08833563 55767,6917.9,95.438,540.705,538.825,0.0
53628.0,STARLINK-4600,PAYLOAD,2023-08-30 12:16:43,15.08837193,0.0001284,53.2182,53.5027,91.7502,268.3637,0.00010723,1.419e-05,0.0,0 STARLINK-4600,1 53628U 22104AS  23242.51162022  .00001419  00000-0  10723-3 0  9996,2 53628  53.2182  53.5027 0001284  91.7502 268.3637 15.08837193 55851,6917.889,95.438,540.642,538.866,0.0
53628.0,STARLINK-4600,PAYLOAD,2023-08-30 18:38:16,15.08844195,0.0001146,53.2186,52.3143,96.6566,263.4556,0.00010863,1.442e-05,0.0,0 STARLINK-4600,1 53628U 22104AS  23242.77657471  .00001442  00000-0  10863-3 0  9992,2 53628  53.2186  52.3143 0001146  96.6566 263.4556 15.08844195 56589,6917.868,95.437,540.525,538.94,0.0
53628.0,STARLINK-4600,PAYLOAD,2023-08-31 12:07:31,15.08833872,0.0001289,53.2181,49.0419,91.174,268.94,3.9801e-05,3.46e-06,0.0,0 STARLINK-4600,1 53628U 22104AS  23243.50522572  .00000346  00000-0  39801-4 0  9993,2 53628  53.2181  49.0419 0001289  91.1740 268.9400 15.08833872 56000,6917.899,95.438,540.656,538.872,0.0
53628.0,STARLINK-4600,PAYLOAD,2023-09-01 11:58:18,15.08845197,0.0001534,53.2203,44.5823,96.9614,263.1552,8.0477e-06,-1.6e-06,0.0,0 STARLINK-4600,1 53628U 22104AS  23244.49882094 -.00000160  00000-0  80477-5 0  9991,2 53628  53.2203  44.5823 0001534  96.9614 263.1552 15.08845197 56154,6917.865,95.437,540.791,538.668,0.0
53628.0,STARLINK-4600,PAYLOAD,2023-09-01 23:05:59,15.0884956,0.0001739,53.217,42.4993,99.8031,260.3157,7.1846e-05,8.56e-06,0.0,0 STARLINK-4600,1 53628U 22104AS  23244.96249383  .00000856  00000-0  71846-4 0  9991,2 53628  53.2170  42.4993 0001739  99.8031 260.3157 15.08849560 56220,6917.851,95.437,540.919,538.513,0.0
53628.0,STARLINK-4600,PAYLOAD,2023-09-02 10:13:42,15.08837839,0.0001617,53.2157,40.4165,88.2307,271.8871,7.1598e-05,8.52e-06,0.0,0 STARLINK-4600,1 53628U 22104AS  23245.42618211  .00000852  00000-0  71598-4 0  9993,2 53628  53.2157  40.4165 0001617  88.2307 271.8871 15.08837839 56290,6917.887,95.438,540.871,538.633,0.0
53628.0,STARLINK-4600,PAYLOAD,2023-09-02 16:35:14,15.08834752,0.0001175,53.2185,39.2297,85.3011,274.8115,3.595e-05,2.84e-06,0.0,0 STARLINK-4600,1 53628U 22104AS  23245.69114457  .00000284  00000-0  35950-4 0  9996,2 53628  53.2185  39.2297 0001175  85.3011 274.8115 15.08834752 57029,6917.896,95.438,540.574,538.949,0.0
53628.0,STARLINK-4600,PAYLOAD,2023-09-03 10:04:28,15.08845287,0.0001248,53.2181,35.9587,85.8532,274.2603,0.00012836,1.756e-05,0.0,0 STARLINK-4600,1 53628U 22104AS  23246.41977517  .00001756  00000-0  12836-3 0  9993,2 53628  53.2181  35.9587 0001248  85.8532 274.2603 15.08845287 57137,6917.864,95.437,540.593,538.866,0.0
53628.0,STARLINK-4600,PAYLOAD,2023-09-03 16:26:00,15.08850996,0.0001336,53.2179,34.7694,84.7342,275.3803,0.00012342,1.677e-05,0.0,0 STARLINK-4600,1 53628U 22104AS  23246.68473091  .00001677  00000-0  12342-3 0  9994,2 53628  53.2179  34.7694 0001336  84.7342 275.3803 15.08850996 56489,6917.847,95.437,540.636,538.788,0.0
53628.0,STARLINK-4600,PAYLOAD,2023-09-03 21:12:09,15.08860302,0.0001247,53.2183,33.8773,75.641,284.472,0.00012486,1.701e-05,0.0,0 STARLINK-4600,1 53628U 22104AS  23246.88344398  .00001701  00000-0  12486-3 0  9990,2 53628  53.2183  33.8773 0001247  75.6410 284.4720 15.08860302 56513,6917.818,95.436,540.546,538.821,0.0
53628.0,STARLINK-4600,PAYLOAD,2023-09-04 09:55:16,15.08831354,0.0001399,53.2173,31.4981,88.4148,271.7004,5.2454e-05,5.47e-06,0.0,0 STARLINK-4600,1 53628U 22104AS  23247.41338424  .00000547  00000-0  52454-4 0  9990,2 53628  53.2173  31.4981 0001399  88.4148 271.7004 15.08831354 56592,6917.907,95.438,540.74,538.804,0.0
